GLOBALSTAR M068         
1 32266U 07048D   24341.80725427 -.00000067  00000+0  20745-3 0  9991
2 32266  51.9855 168.6891 0002106  82.6759 290.4073 12.62810916793548
GLOBALSTAR M079         
1 37188U 10054A   24341.46212760 -.00000086  00000+0  98026-4 0  9992
2 37188  52.0058   6.4739 0000282 164.0697 342.8620 12.62267950652113
GLOBALSTAR M074         
1 37189U 10054B   24341.64875288 -.00000085  00000+0  10506-3 0  9998
2 37189  52.0036   5.2557 0000253  66.3285  90.3879 12.62259948652748
GLOBALSTAR M076         
1 37190U 10054C   24341.59343230 -.00000078  00000+0  14241-3 0  9993
2 37190  52.0050   5.5805 0000073 303.0012 200.5380 12.62274371652451
GLOBALSTAR M077         
1 37191U 10054D   24341.66573188 -.00000084  00000+0  11006-3 0  9992
2 37191  52.0085 322.1615 0000378  53.7593 118.2752 12.62267831652831
GLOBALSTAR M075         
1 37192U 10054E   24341.69217160 -.00000083  00000+0  11458-3 0  9991
2 37192  51.9965  47.6410 0000476 112.5911  61.1619 12.62269743651534
GLOBALSTAR M073         
1 37193U 10054F   24341.69152709 -.00000090  00000+0  78209-4 0  9995
2 37193  52.0071 321.3152 0000251  34.3794 136.5581 12.62273527653522
GLOBALSTAR M083         
1 37739U 11033A   24341.54657485 -.00000064  00000+0  22034-3 0  9999
2 37739  51.9863 270.7519 0000632  75.2743  96.5037 12.62268935622524
GLOBALSTAR M088         
1 37740U 11033B   24341.56865440 -.00000095  00000+0  51126-4 0  9994
2 37740  51.9703 176.3374 0001104  95.1426 297.6492 12.62266252618077
GLOBALSTAR M091         
1 37741U 11033C   24341.50453858 -.00000097  00000+0  36629-4 0  9998
2 37741  51.9970 139.7436 0001208 115.2018 284.9130 12.62271487618852
GLOBALSTAR M085         
1 37742U 11033D   24341.75370924 -.00000080  00000+0  13409-3 0  9990
2 37742  51.9867  90.1910 0000992 128.4355  25.6949 12.62269915619889
GLOBALSTAR M081         
1 37743U 11033E   24341.85812083 -.00000090  00000+0  76949-4 0  9999
2 37743  51.9957  92.5412 0000723 138.7384  10.1637 12.62273871619936
GLOBALSTAR M089         
1 37744U 11033F   24341.58085326 -.00000069  00000+0  19349-3 0  9998
2 37744  51.9950  47.6521 0000228 100.6898  46.7193 12.62273002620367
GLOBALSTAR M084         
1 38040U 11080A   24341.59935289 -.00000061  00000+0  23766-3 0  9993
2 38040  52.0014 274.7815 0000837  38.1639 133.6207 12.62271899598349
GLOBALSTAR M080         
1 38041U 11080B   24341.57293252 -.00000071  00000+0  18562-3 0  9998
2 38041  52.0067 276.4024 0000736  18.2522 152.6599 12.62269560598467
GLOBALSTAR M082         
1 38042U 11080C   24341.79280361 -.00000073  00000+0  17366-3 0  9993
2 38042  52.0064 231.1590 0001288  89.5345 301.3575 12.62270753599372
GLOBALSTAR M092         
1 38043U 11080D   24341.47444583 -.00000081  00000+0  12708-3 0  9991
2 38043  52.0100 322.4934 0000519  53.5831  90.0288 12.62270078597828
GLOBALSTAR M090         
1 38044U 11080E   24341.74800769 -.00000077  00000+0  14838-3 0  9995
2 38044  51.9875 225.3508 0001003  84.0629 343.5749 12.62264586599352
GLOBALSTAR M086         
1 38045U 11080F   24341.76557264 -.00000080  00000+0  13332-3 0  9999
2 38045  51.9883 225.8328 0000078  61.8550 326.1203 12.62264396599366
GLOBALSTAR M097         
1 39072U 13005A   24341.62786489 -.00000100  00000+0  21917-4 0  9999
2 39072  52.0018 140.6034 0000965 114.8459 245.2508 12.62268159546495
GLOBALSTAR M093         
1 39073U 13005B   24341.68011456 -.00000092  00000+0  64083-4 0  9992
2 39073  51.9787 134.0516 0001056 118.9006 241.1966 12.62277027546457
GLOBALSTAR M094         
1 39074U 13005C   24341.60121030 -.00000084  00000+0  11215-3 0  9994
2 39074  51.9979  48.4835 0000651 151.0577 209.0326 12.62265868548055
GLOBALSTAR M096         
1 39075U 13005D   24341.77277193 -.00000085  00000+0  10417-3 0  9999
2 39075  52.0069  96.3243 0001004 132.4498 227.6454 12.62265309547340
GLOBALSTAR M078         
1 39076U 13005E   24341.58748529 -.00000102  00000+0  11448-4 0  9991
2 39076  51.9841 181.6590 0001885 101.9633 258.1445 12.62267397545592
GLOBALSTAR M095         
1 39077U 13005F   24341.77269336 -.00000097  00000+0  35702-4 0  9999
2 39077  51.9773 178.3904 0001485 109.2550 250.8477 12.62269398545838
GLOBALSTAR M087         
1 52888U 22064A   24341.32068016 -.00000061  00000+0  13806-3 0  9993
2 52888  51.9776 329.1725 0035643  31.1932 329.1071 13.30672077120548
